NORAD_CAT_ID,OBJECT_NAME,OBJECT_TYPE,EPOCH,MEAN_MOTION,ECCENTRICITY,INCLINATION,RA_OF_ASC_NODE,ARG_OF_PERICENTER,MEAN_ANOMALY,BSTAR,MEAN_MOTION_DOT,MEAN_MOTION_DDOT,TLE_LINE0,TLE_LINE1,TLE_LINE2,SEMIMAJOR_AXIS,PERIOD,APOGEE,PERIGEE,DECAYED
55678.0,STARLINK-5314,PAYLOAD,2023-05-26 23:22:30,15.69933427,0.0003704,69.9991,233.8158,271.2352,88.8419,3.949e-05,4.54e-05,0.0,0 STARLINK-5314,1 55678U 23021BC  23146.97396725  .00004540  00000-0  39490-4 0  9995,2 55678  69.9991 233.8158 0003704 271.2352  88.8419 15.69933427 15959,6737.224,91.724,361.585,356.594,0.0
55678.0,STARLINK-5314,PAYLOAD,2023-05-27 11:36:32,15.69925396,0.0003499,69.9992,232.3819,267.5425,92.5371,1.937e-05,2.117e-05,0.0,0 STARLINK-5314,1 55678U 23021BC  23147.48370485  .00002117  00000-0  19370-4 0  9990,2 55678  69.9992 232.3819 0003499 267.5425  92.5371 15.69925396 16033,6737.247,91.724,361.47,356.755,0.0
55678.0,STARLINK-5314,PAYLOAD,2023-05-27 14:40:02,15.69929849,0.0003281,70.0,232.0234,264.2857,95.7965,2.9817e-05,3.375e-05,0.0,0 STARLINK-5314,1 55678U 23021BC  23147.61113756  .00003375  00000-0  29817-4 0  9995,2 55678  70.0000 232.0234 0003281 264.2857  95.7965 15.69929849 16363,6737.235,91.724,361.31,356.889,0.0
55678.0,STARLINK-5314,PAYLOAD,2023-05-28 05:57:33,15.6992895,0.0003094,70.0004,230.2325,261.7513,98.3332,4.3681e-05,5.044e-05,0.0,0 STARLINK-5314,1 55678U 23021BC  23148.24830557  .00005044  00000-0  43681-4 0  9990,2 55678  70.0004 230.2325 0003094 261.7513  98.3332 15.69928950 16461,6737.237,91.724,361.187,357.018,0.0
55678.0,STARLINK-5314,PAYLOAD,2023-05-28 09:01:04,15.69905263,0.0002631,70.0015,229.8759,242.913,117.1797,-2.0982e-05,-2.732e-05,0.0,0 STARLINK-5314,1 55678U 23021BC  23148.37574665 -.00002732  00000-0 -20982-4 0  9991,2 55678  70.0015 229.8759 0002631 242.9130 117.1797 15.69905263 16175,6737.305,91.725,360.943,357.397,0.0
55678.0,STARLINK-5314,PAYLOAD,2023-05-28 15:08:04,15.69925411,0.0002756,70.0008,229.1582,271.9607,88.1273,2.1606e-05,2.386e-05,0.0,0 STARLINK-5314,1 55678U 23021BC  23148.63060771  .00002386  00000-0  21606-4 0  9995,2 55678  70.0008 229.1582 0002756 271.9607  88.1273 15.69925411 16211,6737.247,91.724,360.969,357.256,0.0
55678.0,STARLINK-5314,PAYLOAD,2023-05-29 14:04:20,15.69938136,0.0002872,70.0004,226.4712,266.4304,93.6563,3.4622e-05,3.955e-05,0.0,0 STARLINK-5314,1 55678U 23021BC  23149.58634983  .00003955  00000-0  34622-4 0  9997,2 55678  70.0004 226.4712 0002872 266.4304  93.6563 15.69938136 16675,6737.211,91.723,361.011,357.141,0.0
55678.0,STARLINK-5314,PAYLOAD,2023-05-29 15:36:05,15.69940043,0.000307,70.0008,226.2916,248.5921,111.4948,4.5122e-05,5.22e-05,0.0,0 STARLINK-5314,1 55678U 23021BC  23149.65006458  .00005220  00000-0  45122-4 0  9999,2 55678  70.0008 226.2916 0003070 248.5921 111.4948 15.69940043 16373,6737.206,91.723,361.139,357.002,0.0
55678.0,STARLINK-5314,PAYLOAD,2023-05-30 08:25:22,15.69925262,0.0002539,70.0009,224.3188,227.4307,132.6674,2.8345e-05,3.197e-05,0.0,0 STARLINK-5314,1 55678U 23021BC  23150.35095523  .00003197  00000-0  28345-4 0  9998,2 55678  70.0009 224.3188 0002539 227.4307 132.6674 15.69925262 16486,6737.248,91.724,360.823,357.402,0.0
55678.0,STARLINK-5314,PAYLOAD,2023-05-30 14:32:23,15.69921247,0.0003205,70.0005,223.6028,266.8901,93.1928,6.1143e-06,5.23e-06,0.0,0 STARLINK-5314,1 55678U 23021BC  23150.60582383  .00000523  00000-0  61143-5 0  9995,2 55678  70.0005 223.6028 0003205 266.8901  93.1928 15.69921247 16836,6737.259,91.724,361.284,356.965,0.0
55678.0,STARLINK-5314,PAYLOAD,2023-05-31 07:21:39,15.69922935,0.0003323,70.0001,221.6332,266.3906,93.6909,1.1633e-05,1.186e-05,0.0,0 STARLINK-5314,1 55678U 23021BC  23151.30670869  .00001186  00000-0  11633-4 0  9994,2 55678  70.0001 221.6332 0003323 266.3906  93.6909 15.69922935 16636,6737.254,91.724,361.358,356.881,0.0
55678.0,STARLINK-5314,PAYLOAD,2023-05-31 13:28:40,15.69927443,0.0003188,70.0,220.9164,265.0579,95.0253,2.5902e-05,2.903e-05,0.0,0 STARLINK-5314,1 55678U 23021BC  23151.56157448  .00002903  00000-0  25902-4 0  9997,2 55678  70.0000 220.9164 0003188 265.0579  95.0253 15.69927443 16986,6737.242,91.724,361.254,356.959,0.0
55678.0,STARLINK-5314,PAYLOAD,2023-06-01 07:49:41,15.69926895,0.0003208,70.0,218.7663,269.4922,90.5906,3.2559e-05,3.704e-05,0.0,0 STARLINK-5314,1 55678U 23021BC  23152.32617674  .00003704  00000-0  32559-4 0  9990,2 55678  70.0000 218.7663 0003208 269.4922  90.5906 15.69926895 17108,6737.243,91.724,361.269,356.947,0.0
55678.0,STARLINK-5314,PAYLOAD,2023-06-01 21:35:27,15.69922792,0.0003178,69.9993,217.1539,269.717,90.3661,8.5991e-06,8.21e-06,0.0,0 STARLINK-5314,1 55678U 23021BC  23152.89962871  .00000821  00000-0  85991-5 0  9990,2 55678  69.9993 217.1539 0003178 269.7170  90.3661 15.69922792 16887,6737.255,91.724,361.261,356.979,0.0
55678.0,STARLINK-5314,PAYLOAD,2023-06-02 12:52:59,15.69924141,0.0003213,69.999,215.3635,267.6878,92.395,1.1709e-05,1.195e-05,0.0,0 STARLINK-5314,1 55678U 23021BC  23153.53679623  .00001195  00000-0  11709-4 0  9992,2 55678  69.9990 215.3635 0003213 267.6878  92.3950 15.69924141 17292,6737.251,91.724,361.281,356.951,0.0
55678.0,STARLINK-5314,PAYLOAD,2023-06-03 07:14:00,15.69922499,0.0003237,69.9987,213.2141,267.3485,92.734,8.4657e-06,8.05e-06,0.0,0 STARLINK-5314,1 55678U 23021BC  23154.30139838  .00000805  00000-0  84657-5 0  9997,2 55678  69.9987 213.2141 0003237 267.3485  92.7340 15.69922499 17105,6737.256,91.724,361.302,356.94,0.0
55678.0,STARLINK-5314,PAYLOAD,2023-06-03 13:21:01,15.69924294,0.0003192,69.9974,212.4977,266.6161,93.4669,9.4725e-06,9.26e-06,0.0,0 STARLINK-5314,1 55678U 23021BC  23154.55626502  .00000926  00000-0  94725-5 0  9994,2 55678  69.9974 212.4977 0003192 266.6161  93.4669 15.69924294 17457,6737.251,91.724,361.266,356.965,0.0
55678.0,STARLINK-5314,PAYLOAD,2023-06-03 20:59:46,15.69926888,0.0003235,69.9978,211.6029,265.463,94.6196,2.1264e-05,2.345e-05,0.0,0 STARLINK-5314,1 55678U 23021BC  23154.87484486  .00002345  00000-0  21264-4 0  9996,2 55678  69.9978 211.6029 0003235 265.4630  94.6196 15.69926888 17501,6737.243,91.724,361.288,356.929,0.0
55678.0,STARLINK-5314,PAYLOAD,2023-06-04 13:49:02,15.69927576,0.0003418,69.9973,209.6322,267.2272,92.8533,1.8444e-05,2.006e-05,0.0,0 STARLINK-5314,1 55678U 23021BC  23155.57572836  .00002006  00000-0  18444-4 0  9991,2 55678  69.9973 209.6322 0003418 267.2272  92.8533 15.69927576 17616,6737.241,91.724,361.409,356.803,0.0
55678.0,STARLINK-5314,PAYLOAD,2023-06-05 05:06:34,15.69925089,0.0003833,69.9965,207.8406,266.7354,93.3403,6.864e-06,6.12e-06,0.0,0 STARLINK-5314,1 55678U 23021BC  23156.21289866  .00000612  00000-0  68640-5 0  9996,2 55678  69.9965 207.8406 0003833 266.7354  93.3403 15.69925089 17402,6737.248,91.724,361.696,356.531,0.0
55678.0,STARLINK-5314,PAYLOAD,2023-06-05 12:45:19,15.69929949,0.0003584,69.9958,206.9443,264.5303,95.5484,1.474e-05,1.56e-05,0.0,0 STARLINK-5314,1 55678U 23021BC  23156.53147767  .00001560  00000-0  14740-4 0  9998,2 55678  69.9958 206.9443 0003584 264.5303  95.5484 15.69929949 17769,6737.234,91.724,361.514,356.685,0.0
55678.0,STARLINK-5314,PAYLOAD,2023-06-06 05:34:36,15.69926178,0.0003247,69.9973,204.9739,270.4035,89.6789,9.2147e-06,8.95e-06,0.0,0 STARLINK-5314,1 55678U 23021BC  23157.23236609  .00000895  00000-0  92147-5 0  9998,2 55678  69.9973 204.9739 0003247 270.4035  89.6789 15.69926178 17567,6737.245,91.724,361.298,356.923,0.0
55678.0,STARLINK-5314,PAYLOAD,2023-06-06 11:41:36,15.69933086,0.0003377,69.9969,204.2569,271.9488,88.1321,1.0734e-05,1.078e-05,0.0,0 STARLINK-5314,1 55678U 23021BC  23157.48722770  .00001078  00000-0  10734-4 0  9999,2 55678  69.9969 204.2569 0003377 271.9488  88.1321 15.69933086 17919,6737.225,91.724,361.366,356.815,0.0
55678.0,STARLINK-5314,PAYLOAD,2023-06-06 13:13:21,15.69930471,0.0003371,69.998,204.0779,271.3322,88.7488,1.3297e-05,1.387e-05,0.0,0 STARLINK-5314,1 55678U 23021BC  23157.55094572  .00001387  00000-0  13297-4 0  9999,2 55678  69.9980 204.0779 0003371 271.3322  88.7488 15.69930471 17924,6737.233,91.724,361.369,356.827,0.0
55678.0,STARLINK-5314,PAYLOAD,2023-06-07 06:02:38,15.69924304,0.0003408,69.9991,202.108,271.0552,89.0253,6.3874e-06,5.55e-06,0.0,0 STARLINK-5314,1 55678U 23021BC  23158.25183285  .00000555  00000-0  63874-5 0  9990,2 55678  69.9991 202.1080 0003408 271.0552  89.0253 15.69924304 17723,6737.251,91.724,361.412,356.82,0.0
55678.0,STARLINK-5314,PAYLOAD,2023-06-07 19:48:24,15.69921518,0.000331,69.9989,200.4957,277.0768,83.0051,1.107e-05,1.118e-05,0.0,0 STARLINK-5314,1 55678U 23021BC  23158.82528586  .00001118  00000-0  11070-4 0  9996,2 55678  69.9989 200.4957 0003310 277.0768  83.0051 15.69921518 18120,6737.259,91.724,361.354,356.894,0.0
55678.0,STARLINK-5314,PAYLOAD,2023-06-08 06:30:40,15.69921934,0.0003351,69.9979,199.242,272.6565,87.4247,6.9093e-06,6.18e-06,0.0,0 STARLINK-5314,1 55678U 23021BC  23159.27130454  .00000618  00000-0  69093-5 0  9992,2 55678  69.9979 199.2420 0003351 272.6565  87.4247 15.69921934 17889,6737.257,91.724,361.38,356.865,0.0
55678.0,STARLINK-5314,PAYLOAD,2023-06-08 12:37:40,15.69930091,0.0003397,69.9976,198.5252,270.9688,89.1118,3.2595e-07,-1.74e-06,0.0,0 STARLINK-5314,1 55678U 23021BC  23159.52616631 -.00000174  00000-0  32595-6 0  9992,2 55678  69.9976 198.5252 0003397 270.9688  89.1118 15.69930091 18238,6737.234,91.724,361.388,356.81,0.0
55678.0,STARLINK-5314,PAYLOAD,2023-06-09 08:30:27,15.69922645,0.000342,69.9969,196.1968,268.1866,91.8938,1.6224e-05,1.738e-05,0.0,0 STARLINK-5314,1 55678U 23021BC  23160.35448591  .00001738  00000-0  16224-4 0  9998,2 55678  69.9969 196.1968 0003420 268.1866  91.8938 15.69922645 18058,6737.255,91.724,361.424,356.816,0.0
55678.0,STARLINK-5314,PAYLOAD,2023-06-09 10:02:12,15.69923026,0.0003504,69.9969,196.0161,267.5157,92.5637,9.7499e-06,9.6e-06,0.0,0 STARLINK-5314,1 55678U 23021BC  23160.41820319  .00000960  00000-0  97499-5 0  9997,2 55678  69.9969 196.0161 0003504 267.5157  92.5637 15.69923026 18374,6737.254,91.724,361.48,356.758,0.0
